CCSDS_OMM_VERS = 2.0
CREATION_DATE  = 
ORIGINATOR     = 

OBJECT_NAME    = STARLINK-36737
OBJECT_ID      = 2026-026V
CENTER_NAME    = EARTH
REF_FRAME      = TEME
TIME_SYSTEM    = UTC
MEAN_ELEMENT_THEORY = SGP/SGP4

EPOCH          = 2026-02-25T20:00:03.000384
MEAN_MOTION    = 15.80860629
ECCENTRICITY   = .0001277
INCLINATION    = 97.2728
RA_OF_ASC_NODE = 110.9206
ARG_OF_PERICENTER = 86.5470
MEAN_ANOMALY   = 306.2863

EPHEMERIS_TYPE = 0
CLASSIFICATION_TYPE = U
NORAD_CAT_ID   = 67740
ELEMENT_SET_NO = 999
REV_AT_EPOCH   = 340
BSTAR          = -.1875E-3
MEAN_MOTION_DOT = -.35982E-3
MEAN_MOTION_DDOT = 0

CCSDS_OMM_VERS = 2.0
CREATION_DATE  = 
ORIGINATOR     = 

OBJECT_NAME    = STARLINK-36740
OBJECT_ID      = 2026-026W
CENTER_NAME    = EARTH
REF_FRAME      = TEME
TIME_SYSTEM    = UTC
MEAN_ELEMENT_THEORY = SGP/SGP4

EPOCH          = 2026-02-25T20:00:03.000384
MEAN_MOTION    = 15.80862226
ECCENTRICITY   = .000147
INCLINATION    = 97.2704
RA_OF_ASC_NODE = 110.9325
ARG_OF_PERICENTER = 87.9776
MEAN_ANOMALY   = 333.8352

EPHEMERIS_TYPE = 0
CLASSIFICATION_TYPE = U
NORAD_CAT_ID   = 67741
ELEMENT_SET_NO = 999
REV_AT_EPOCH   = 340
BSTAR          = -.36791E-3
MEAN_MOTION_DOT = -.70199E-3
MEAN_MOTION_DDOT = 0

CCSDS_OMM_VERS = 2.0
CREATION_DATE  = 
ORIGINATOR     = 

OBJECT_NAME    = STARLINK-36693
OBJECT_ID      = 2026-026X
CENTER_NAME    = EARTH
REF_FRAME      = TEME
TIME_SYSTEM    = UTC
MEAN_ELEMENT_THEORY = SGP/SGP4

EPOCH          = 2026-02-25T20:00:03.000384
MEAN_MOTION    = 15.80878177
ECCENTRICITY   = .000153
INCLINATION    = 97.2728
RA_OF_ASC_NODE = 110.9240
ARG_OF_PERICENTER = 96.5036
MEAN_ANOMALY   = 302.9790

EPHEMERIS_TYPE = 0
CLASSIFICATION_TYPE = U
NORAD_CAT_ID   = 67742
ELEMENT_SET_NO = 999
REV_AT_EPOCH   = 354
BSTAR          = -.30901E-3
MEAN_MOTION_DOT = -.59101E-3
MEAN_MOTION_DDOT = 0

CCSDS_OMM_VERS = 2.0
CREATION_DATE  = 
ORIGINATOR     = 

OBJECT_NAME    = STARLINK-36717
OBJECT_ID      = 2026-026Y
CENTER_NAME    = EARTH
REF_FRAME      = TEME
TIME_SYSTEM    = UTC
MEAN_ELEMENT_THEORY = SGP/SGP4

EPOCH          = 2026-02-25T20:00:03.000384
MEAN_MOTION    = 15.80848485
ECCENTRICITY   = .0001259
INCLINATION    = 97.2714
RA_OF_ASC_NODE = 110.9294
ARG_OF_PERICENTER = 79.9988
MEAN_ANOMALY   = 335.1757

EPHEMERIS_TYPE = 0
CLASSIFICATION_TYPE = U
NORAD_CAT_ID   = 67743
ELEMENT_SET_NO = 999
REV_AT_EPOCH   = 354
BSTAR          = -.68555E-4
MEAN_MOTION_DOT = -.13272E-3
MEAN_MOTION_DDOT = 0

CCSDS_OMM_VERS = 2.0
CREATION_DATE  = 
ORIGINATOR     = 

OBJECT_NAME    = STARLINK-36692
OBJECT_ID      = 2026-026Z
CENTER_NAME    = EARTH
REF_FRAME      = TEME
TIME_SYSTEM    = UTC
MEAN_ELEMENT_THEORY = SGP/SGP4

EPOCH          = 2026-02-25T20:00:03.000384
MEAN_MOTION    = 15.80889686
ECCENTRICITY   = .0001656
INCLINATION    = 97.2724
RA_OF_ASC_NODE = 110.9267
ARG_OF_PERICENTER = 90.1246
MEAN_ANOMALY   = 317.7383

EPHEMERIS_TYPE = 0
CLASSIFICATION_TYPE = U
NORAD_CAT_ID   = 67744
ELEMENT_SET_NO = 999
REV_AT_EPOCH   = 340
BSTAR          = -.54086E-3
MEAN_MOTION_DOT = -.102882E-2
MEAN_MOTION_DDOT = 0

CCSDS_OMM_VERS = 2.0
CREATION_DATE  = 
ORIGINATOR     = 

OBJECT_NAME    = 2026-027A
OBJECT_ID      = 2026-027A
CENTER_NAME    = EARTH
REF_FRAME      = TEME
TIME_SYSTEM    = UTC
MEAN_ELEMENT_THEORY = SGP/SGP4

EPOCH          = 2026-02-25T18:27:14.140224
MEAN_MOTION    = 15.17443102
ECCENTRICITY   = .0009475
INCLINATION    = 97.4881
RA_OF_ASC_NODE = 185.9112
ARG_OF_PERICENTER = 237.8790
MEAN_ANOMALY   = 122.1524

EPHEMERIS_TYPE = 0
CLASSIFICATION_TYPE = U
NORAD_CAT_ID   = 67746
ELEMENT_SET_NO = 999
REV_AT_EPOCH   = 205
BSTAR          = .43044E-3
MEAN_MOTION_DOT = .8559E-4
MEAN_MOTION_DDOT = 0

CCSDS_OMM_VERS = 2.0
CREATION_DATE  = 
ORIGINATOR     = 

OBJECT_NAME    = 2026-027B
OBJECT_ID      = 2026-027B
CENTER_NAME    = EARTH
REF_FRAME      = TEME
TIME_SYSTEM    = UTC
MEAN_ELEMENT_THEORY = SGP/SGP4

EPOCH          = 2026-02-25T18:25:56.336160
MEAN_MOTION    = 15.17544190
ECCENTRICITY   = .0009599
INCLINATION    = 97.4876
RA_OF_ASC_NODE = 185.9113
ARG_OF_PERICENTER = 240.4654
MEAN_ANOMALY   = 119.5623

EPHEMERIS_TYPE = 0
CLASSIFICATION_TYPE = U
NORAD_CAT_ID   = 67747
ELEMENT_SET_NO = 999
REV_AT_EPOCH   = 205
BSTAR          = .42656E-3
MEAN_MOTION_DOT = .8506E-4
MEAN_MOTION_DDOT = 0

CCSDS_OMM_VERS = 2.0
CREATION_DATE  = 
ORIGINATOR     = 

OBJECT_NAME    = 2026-027C
OBJECT_ID      = 2026-027C
CENTER_NAME    = EARTH
REF_FRAME      = TEME
TIME_SYSTEM    = UTC
MEAN_ELEMENT_THEORY = SGP/SGP4

EPOCH          = 2026-02-25T19:59:21.328800
MEAN_MOTION    = 15.17629619
ECCENTRICITY   = .0009955
INCLINATION    = 97.4889
RA_OF_ASC_NODE = 185.9801
ARG_OF_PERICENTER = 243.1086
MEAN_ANOMALY   = 116.9131

EPHEMERIS_TYPE = 0
CLASSIFICATION_TYPE = U
NORAD_CAT_ID   = 67748
ELEMENT_SET_NO = 999
REV_AT_EPOCH   = 206
BSTAR          = .31253E-3
MEAN_MOTION_DOT = .6228E-4
MEAN_MOTION_DDOT = 0

CCSDS_OMM_VERS = 2.0
CREATION_DATE  = 
ORIGINATOR     = 

OBJECT_NAME    = 2026-027D
OBJECT_ID      = 2026-027D
CENTER_NAME    = EARTH
REF_FRAME      = TEME
TIME_SYSTEM    = UTC
MEAN_ELEMENT_THEORY = SGP/SGP4

EPOCH          = 2026-02-25T19:57:03.388608
MEAN_MOTION    = 15.17863545
ECCENTRICITY   = .000973
INCLINATION    = 97.4884
RA_OF_ASC_NODE = 185.9814
ARG_OF_PERICENTER = 247.9870
MEAN_ANOMALY   = 112.0330

EPHEMERIS_TYPE = 0
CLASSIFICATION_TYPE = U
NORAD_CAT_ID   = 67749
ELEMENT_SET_NO = 999
REV_AT_EPOCH   = 201
BSTAR          = .502E-3
MEAN_MOTION_DOT = .10117E-3
MEAN_MOTION_DDOT = 0

CCSDS_OMM_VERS = 2.0
CREATION_DATE  = 
ORIGINATOR     = 

OBJECT_NAME    = 2026-027E
OBJECT_ID      = 2026-027E
CENTER_NAME    = EARTH
REF_FRAME      = TEME
TIME_SYSTEM    = UTC
MEAN_ELEMENT_THEORY = SGP/SGP4

EPOCH          = 2026-02-25T19:56:59.561952
MEAN_MOTION    = 15.17851119
ECCENTRICITY   = .0008889
INCLINATION    = 97.4894
RA_OF_ASC_NODE = 185.9837
ARG_OF_PERICENTER = 249.2554
MEAN_ANOMALY   = 110.7727

EPHEMERIS_TYPE = 0
CLASSIFICATION_TYPE = U
NORAD_CAT_ID   = 67750
ELEMENT_SET_NO = 999
REV_AT_EPOCH   = 206
BSTAR          = .43613E-3
MEAN_MOTION_DOT = .8774E-4
MEAN_MOTION_DDOT = 0

CCSDS_OMM_VERS = 2.0
CREATION_DATE  = 
ORIGINATOR     = 

OBJECT_NAME    = 2026-027F
OBJECT_ID      = 2026-027F
CENTER_NAME    = EARTH
REF_FRAME      = TEME
TIME_SYSTEM    = UTC
MEAN_ELEMENT_THEORY = SGP/SGP4

EPOCH          = 2026-02-25T19:55:42.976128
MEAN_MOTION    = 15.18028873
ECCENTRICITY   = .0010092
INCLINATION    = 97.4893
RA_OF_ASC_NODE = 185.9851
ARG_OF_PERICENTER = 249.1464
MEAN_ANOMALY   = 110.8690

EPHEMERIS_TYPE = 0
CLASSIFICATION_TYPE = U
NORAD_CAT_ID   = 67751
ELEMENT_SET_NO = 999
REV_AT_EPOCH   = 206
BSTAR          = .70467E-3
MEAN_MOTION_DOT = .14306E-3
MEAN_MOTION_DDOT = 0

CCSDS_OMM_VERS = 2.0
CREATION_DATE  = 
ORIGINATOR     = 

OBJECT_NAME    = 2026-027G
OBJECT_ID      = 2026-027G
CENTER_NAME    = EARTH
REF_FRAME      = TEME
TIME_SYSTEM    = UTC
MEAN_ELEMENT_THEORY = SGP/SGP4

EPOCH          = 2026-02-25T18:20:56.385600
MEAN_MOTION    = 15.17945023
ECCENTRICITY   = .0009219
INCLINATION    = 97.4889
RA_OF_ASC_NODE = 185.9183
ARG_OF_PERICENTER = 251.9564
MEAN_ANOMALY   = 108.0665

EPHEMERIS_TYPE = 0
CLASSIFICATION_TYPE = U
NORAD_CAT_ID   = 67752
ELEMENT_SET_NO = 999
REV_AT_EPOCH   = 205
BSTAR          = .45981E-3
MEAN_MOTION_DOT = .9281E-4
MEAN_MOTION_DDOT = 0

CCSDS_OMM_VERS = 2.0
CREATION_DATE  = 
ORIGINATOR     = 

OBJECT_NAME    = 2026-027H
OBJECT_ID      = 2026-027H
CENTER_NAME    = EARTH
REF_FRAME      = TEME
TIME_SYSTEM    = UTC
MEAN_ELEMENT_THEORY = SGP/SGP4

EPOCH          = 2026-02-25T18:45:43.060032
MEAN_MOTION    = 15.65231550
ECCENTRICITY   = .0248369
INCLINATION    = 97.5124
RA_OF_ASC_NODE = 186.9100
ARG_OF_PERICENTER = 288.9863
MEAN_ANOMALY   = 68.4635

EPHEMERIS_TYPE = 0
CLASSIFICATION_TYPE = U
NORAD_CAT_ID   = 67753
ELEMENT_SET_NO = 999
REV_AT_EPOCH   = 211
BSTAR          = .60852E-3
MEAN_MOTION_DOT = .35606E-2
MEAN_MOTION_DDOT = .23628E-5

CCSDS_OMM_VERS = 2.0
CREATION_DATE  = 
ORIGINATOR     = 

OBJECT_NAME    = 2026-027J
OBJECT_ID      = 2026-027J
CENTER_NAME    = EARTH
REF_FRAME      = TEME
TIME_SYSTEM    = UTC
MEAN_ELEMENT_THEORY = SGP/SGP4

EPOCH          = 2026-02-25T19:06:02.184768
MEAN_MOTION    = 15.77619290
ECCENTRICITY   = .0205978
INCLINATION    = 97.5080
RA_OF_ASC_NODE = 187.0435
ARG_OF_PERICENTER = 287.7039
MEAN_ANOMALY   = 70.1837

EPHEMERIS_TYPE = 0
CLASSIFICATION_TYPE = U
NORAD_CAT_ID   = 67754
ELEMENT_SET_NO = 999
REV_AT_EPOCH   = 206
BSTAR          = .1207E-2
MEAN_MOTION_DOT = .929052E-2
MEAN_MOTION_DDOT = .24132E-5

CCSDS_OMM_VERS = 2.0
CREATION_DATE  = 
ORIGINATOR     = 

OBJECT_NAME    = 2026-028A
OBJECT_ID      = 2026-028A
CENTER_NAME    = EARTH
REF_FRAME      = TEME
TIME_SYSTEM    = UTC
MEAN_ELEMENT_THEORY = SGP/SGP4

EPOCH          = 2026-02-25T06:56:03.022368
MEAN_MOTION    = 0.99526187
ECCENTRICITY   = .0042027
INCLINATION    = 0.4996
RA_OF_ASC_NODE = 288.9234
ARG_OF_PERICENTER = 229.8813
MEAN_ANOMALY   = 201.3429

EPHEMERIS_TYPE = 0
CLASSIFICATION_TYPE = U
NORAD_CAT_ID   = 67756
ELEMENT_SET_NO = 999
REV_AT_EPOCH   = 13
BSTAR          = 0
MEAN_MOTION_DOT = -.171E-5
MEAN_MOTION_DDOT = 0

